start=new Date('2021-08-29T00:00:00.000Z').valueOf();
sats=[{"MEAN_ANOMALY":"298.1226","TLE_LINE2":"2 47152  53.0543 167.5167 0001964  61.9961 298.1226 15.06400170 42512","FILE":"3104555","RCS_SIZE":"LARGE","PERIOD":"95.592","MEAN_MOTION_DOT":"0.00000687","ELEMENT_SET_NO":"999","MEAN_MOTION_DDOT":"0.0000000000000","ECCENTRICITY":"0.00019640","BSTAR":"0.00006501000000","APOAPSIS":"548.573","EPHEMERIS_TYPE":"0","TIME_SYSTEM":"UTC","DECAY_DATE":null,"MEAN_MOTION":"15.06400170","EPOCH":"2021-08-28T12:18:41.844384","ARG_OF_PERICENTER":"61.9961","LAUNCH_DATE":"2020-11-25","NORAD_CAT_ID":"47152","RA_OF_ASC_NODE":"167.5167","SEMIMAJOR_AXIS":"6925.348","COUNTRY_CODE":"US","REV_AT_EPOCH":"4251","OBJECT_NAME":"STARLINK-1866","CENTER_NAME":"EARTH","GP_ID":"183639328","CLASSIFICATION_TYPE":"U","OBJECT_TYPE":"PAYLOAD","INCLINATION":"53.0543","PERIAPSIS":"545.853","TLE_LINE1":"1 47152U 20088AG  21240.51298431  .00000687  00000-0  65010-4 0  9996","SITE":"AFETR","MEAN_ELEMENT_THEORY":"SGP4","OBJECT_ID":"2020-088AG","REF_FRAME":"TEME"},{"OBJECT_TYPE":"PAYLOAD","INCLINATION":"53.0558","TLE_LINE1":"1 47153U 20088AH  21240.28857592  .00001999  00000-0  15309-3 0  9992","SITE":"AFETR","PERIAPSIS":"545.856","MEAN_ELEMENT_THEORY":"SGP4","OBJECT_ID":"2020-088AH","REF_FRAME":"TEME","RA_OF_ASC_NODE":"173.5192","COUNTRY_CODE":"US","SEMIMAJOR_AXIS":"6925.349","OBJECT_NAME":"STARLINK-1867","REV_AT_EPOCH":"4241","CENTER_NAME":"EARTH","GP_ID":"183609978","CLASSIFICATION_TYPE":"U","MEAN_MOTION_DDOT":"0.0000000000000","ECCENTRICITY":"0.00019620","BSTAR":"0.00015309000000","DECAY_DATE":null,"APOAPSIS":"548.573","EPHEMERIS_TYPE":"0","TIME_SYSTEM":"UTC","EPOCH":"2021-08-28T06:55:32.959488","MEAN_MOTION":"15.06399742","ARG_OF_PERICENTER":"54.1249","LAUNCH_DATE":"2020-11-25","NORAD_CAT_ID":"47153","MEAN_ANOMALY":"305.9922","TLE_LINE2":"2 47153  53.0558 173.5192 0001962  54.1249 305.9922 15.06399742 42416","FILE":"3104340","PERIOD":"95.592","RCS_SIZE":"LARGE","MEAN_MOTION_DOT":"0.00001999","ELEMENT_SET_NO":"999"},{"REV_AT_EPOCH":"4271","OBJECT_NAME":"STARLINK-1868","CENTER_NAME":"EARTH","GP_ID":"183638331","CLASSIFICATION_TYPE":"U","RA_OF_ASC_NODE":"155.8599","COUNTRY_CODE":"US","SEMIMAJOR_AXIS":"6925.311","OBJECT_ID":"2020-088AJ","MEAN_ELEMENT_THEORY":"SGP4","REF_FRAME":"TEME","OBJECT_TYPE":"PAYLOAD","TLE_LINE1":"1 47154U 20088AJ  21240.88249268  .00001505  00000-0  11988-3 0  9996","SITE":"AFETR","PERIAPSIS":"545.899","INCLINATION":"53.0554","RCS_SIZE":"LARGE","PERIOD":"95.591","FILE":"3104555","ELEMENT_SET_NO":"999","MEAN_MOTION_DOT":"0.00001505","MEAN_ANOMALY":"291.1896","TLE_LINE2":"2 47154  53.0554 155.8599 0001843  68.9290 291.1896 15.06412382 42719","LAUNCH_DATE":"2020-11-25","ARG_OF_PERICENTER":"68.9290","NORAD_CAT_ID":"47154","BSTAR":"0.00011988000000","ECCENTRICITY":"0.00018430","MEAN_MOTION_DDOT":"0.0000000000000","EPOCH":"2021-08-28T21:10:47.367552","MEAN_MOTION":"15.06412382","DECAY_DATE":null,"APOAPSIS":"548.452","EPHEMERIS_TYPE":"0","TIME_SYSTEM":"UTC"},{"MEAN_ELEMENT_THEORY":"SGP4","OBJECT_ID":"2020-088AK","REF_FRAME":"TEME","OBJECT_TYPE":"PAYLOAD","INCLINATION":"53.0531","PERIAPSIS":"546.081","SITE":"AFETR","TLE_LINE1":"1 47155U 20088AK  21240.51943509  .00000296  00000-0  38793-4 0  9996","REV_AT_EPOCH":"4237","CENTER_NAME":"EARTH","OBJECT_NAME":"STARLINK-1869","CLASSIFICATION_TYPE":"U","GP_ID":"183639079","RA_OF_ASC_NODE":"177.4828","SEMIMAJOR_AXIS":"6925.350","COUNTRY_CODE":"US","ARG_OF_PERICENTER":"62.7882","LAUNCH_DATE":"2020-11-25","NORAD_CAT_ID":"47155","MEAN_MOTION_DDOT":"0.0000000000000","ECCENTRICITY":"0.00016370","BSTAR":"0.00003879300000","APOAPSIS":"548.349","TIME_SYSTEM":"UTC","EPHEMERIS_TYPE":"0","DECAY_DATE":null,"MEAN_MOTION":"15.06399577","EPOCH":"2021-08-28T12:27:59.191776","FILE":"3104555","RCS_SIZE":"LARGE","PERIOD":"95.592","MEAN_MOTION_DOT":"0.00000296","ELEMENT_SET_NO":"999","MEAN_ANOMALY":"297.3274","TLE_LINE2":"2 47155  53.0531 177.4828 0001637  62.7882 297.3274 15.06399577 42370"},{"GP_ID":"183638829","CLASSIFICATION_TYPE":"U","CENTER_NAME":"EARTH","REV_AT_EPOCH":"4327","OBJECT_NAME":"STARLINK-1870","COUNTRY_CODE":"US","SEMIMAJOR_AXIS":"6843.201","RA_OF_ASC_NODE":"116.4378","REF_FRAME":"TEME","OBJECT_ID":"2020-088AL","MEAN_ELEMENT_THEORY":"SGP4","SITE":"AFETR","TLE_LINE1":"1 47156U 20088AL  21240.89287211  .00005094  00000-0  16581-3 0  9990","PERIAPSIS":"464.004","INCLINATION":"53.0552","OBJECT_TYPE":"PAYLOAD","ELEMENT_SET_NO":"999","MEAN_MOTION_DOT":"0.00005094","RCS_SIZE":"LARGE","PERIOD":"93.896","FILE":"3104555","TLE_LINE2":"2 47156  53.0552 116.4378 0001551  51.0592 309.0547 15.33606227 43278","MEAN_ANOMALY":"309.0547","NORAD_CAT_ID":"47156","LAUNCH_DATE":"2020-11-25","ARG_OF_PERICENTER":"51.0592","EPOCH":"2021-08-28T21:25:44.150304","MEAN_MOTION":"15.33606227","DECAY_DATE":null,"APOAPSIS":"466.127","TIME_SYSTEM":"UTC","EPHEMERIS_TYPE":"0","BSTAR":"0.00016581000000","MEAN_MOTION_DDOT":"0.0000000000000","ECCENTRICITY":"0.00015510"},{"MEAN_MOTION_DDOT":"0.0000000000000","ECCENTRICITY":"0.00018730","BSTAR":"0.00006351300000","DECAY_DATE":null,"APOAPSIS":"548.497","TIME_SYSTEM":"UTC","EPHEMERIS_TYPE":"0","EPOCH":"2021-08-28T11:46:50.793888","MEAN_MOTION":"15.06404309","ARG_OF_PERICENTER":"60.8136","LAUNCH_DATE":"2020-11-25","NORAD_CAT_ID":"47157","MEAN_ANOMALY":"299.3040","TLE_LINE2":"2 47157  53.0553 167.6153 0001873  60.8136 299.3040 15.06404309 42510","FILE":"3104555","PERIOD":"95.592","RCS_SIZE":"LARGE","MEAN_MOTION_DOT":"0.00000665","ELEMENT_SET_NO":"999","OBJECT_TYPE":"PAYLOAD","INCLINATION":"53.0553","TLE_LINE1":"1 47157U 20088AM  21240.49086567  .00000665  00000-0  63513-4 0  9995","SITE":"AFETR","PERIAPSIS":"545.903","MEAN_ELEMENT_THEORY":"SGP4","OBJECT_ID":"2020-088AM","REF_FRAME":"TEME","RA_OF_ASC_NODE":"167.6153","SEMIMAJOR_AXIS":"6925.335","COUNTRY_CODE":"US","CENTER_NAME":"EARTH","REV_AT_EPOCH":"4251","OBJECT_NAME":"STARLINK-1871","GP_ID":"183638081","CLASSIFICATION_TYPE":"U"},{"INCLINATION":"53.0548","PERIAPSIS":"545.653","SITE":"AFETR","TLE_LINE1":"1 47158U 20088AN  21240.84563232  .00002176  00000-0  16490-3 0  9994","OBJECT_TYPE":"PAYLOAD","REF_FRAME":"TEME","MEAN_ELEMENT_THEORY":"SGP4","OBJECT_ID":"2020-088AN","COUNTRY_CODE":"US","SEMIMAJOR_AXIS":"6925.303","RA_OF_ASC_NODE":"155.9991","CLASSIFICATION_TYPE":"U","GP_ID":"183637832","OBJECT_NAME":"STARLINK-1873","REV_AT_EPOCH":"4270","CENTER_NAME":"EARTH","APOAPSIS":"548.682","EPHEMERIS_TYPE":"0","TIME_SYSTEM":"UTC","DECAY_DATE":null,"MEAN_MOTION":"15.06414896","EPOCH":"2021-08-28T20:17:42.632448","MEAN_MOTION_DDOT":"0.0000000000000","ECCENTRICITY":"0.00021870","BSTAR":"0.00016490000000","NORAD_CAT_ID":"47158","ARG_OF_PERICENTER":"70.4634","LAUNCH_DATE":"2020-11-25","TLE_LINE2":"2 47158  53.0548 155.9991 0002187  70.4634 289.6591 15.06414896 42700","MEAN_ANOMALY":"289.6591","MEAN_MOTION_DOT":"0.00002176","ELEMENT_SET_NO":"999","FILE":"3104555","RCS_SIZE":"LARGE","PERIOD":"95.591"},{"TLE_LINE2":"2 47159  53.0548 166.0476 0001724  79.2550 280.8633 15.06409715 42560","MEAN_ANOMALY":"280.8633","MEAN_MOTION_DOT":"0.00000911","ELEMENT_SET_NO":"999","FILE":"3104555","PERIOD":"95.592","RCS_SIZE":"LARGE","APOAPSIS":"548.378","TIME_SYSTEM":"UTC","EPHEMERIS_TYPE":"0","DECAY_DATE":null,"MEAN_MOTION":"15.06409715","EPOCH":"2021-08-28T20:11:04.926336","ECCENTRICITY":"0.00017240","MEAN_MOTION_DDOT":"0.0000000000000","BSTAR":"0.00008002700000","NORAD_CAT_ID":"47159","ARG_OF_PERICENTER":"79.2550","LAUNCH_DATE":"2020-11-25","SEMIMAJOR_AXIS":"6925.319","COUNTRY_CODE":"US","RA_OF_ASC_NODE":"166.0476","GP_ID":"183638580","CLASSIFICATION_TYPE":"U","CENTER_NAME":"EARTH","REV_AT_EPOCH":"4256","OBJECT_NAME":"STARLINK-1874","INCLINATION":"53.0548","PERIAPSIS":"545.990","SITE":"AFETR","TLE_LINE1":"1 47159U 20088AP  21240.84102924  .00000911  00000-0  80027-4 0  9995","OBJECT_TYPE":"PAYLOAD","REF_FRAME":"TEME","MEAN_ELEMENT_THEORY":"SGP4","OBJECT_ID":"2020-088AP"},{"FILE":"3104555","PERIOD":"93.373","RCS_SIZE":"LARGE","MEAN_MOTION_DOT":"0.00029657","ELEMENT_SET_NO":"999","MEAN_ANOMALY":"275.2437","TLE_LINE2":"2 47160  53.0552 152.0134 0001155  84.8700 275.2437 15.42205682 42736","ARG_OF_PERICENTER":"84.8700","LAUNCH_DATE":"2020-11-25","NORAD_CAT_ID":"47160","ECCENTRICITY":"0.00011550","MEAN_MOTION_DDOT":"0.0000000000000","BSTAR":"0.00068723000000","DECAY_DATE":null,"EPHEMERIS_TYPE":"0","APOAPSIS":"440.390","TIME_SYSTEM":"UTC","EPOCH":"2021-08-28T11:49:04.677600","MEAN_MOTION":"15.42205682","REV_AT_EPOCH":"4273","CENTER_NAME":"EARTH","OBJECT_NAME":"STARLINK-1875","GP_ID":"183639329","CLASSIFICATION_TYPE":"U","RA_OF_ASC_NODE":"152.0134","COUNTRY_CODE":"US","SEMIMAJOR_AXIS":"6817.738","MEAN_ELEMENT_THEORY":"SGP4","OBJECT_ID":"2020-088AQ","REF_FRAME":"TEME","OBJECT_TYPE":"PAYLOAD","INCLINATION":"53.0552","TLE_LINE1":"1 47160U 20088AQ  21240.49241525  .00029657  00000-0  68723-3 0  9995","SITE":"AFETR","PERIAPSIS":"438.816"},{"EPOCH":"2021-08-28T11:32:14.438688","MEAN_MOTION":"15.06412167","DECAY_DATE":null,"TIME_SYSTEM":"UTC","APOAPSIS":"548.490","EPHEMERIS_TYPE":"0","BSTAR":"0.00009168100000","MEAN_MOTION_DDOT":"0.0000000000000","ECCENTRICITY":"0.00018970","NORAD_CAT_ID":"47161","LAUNCH_DATE":"2020-11-25","ARG_OF_PERICENTER":"69.2247","TLE_LINE2":"2 47161  53.0543 157.6510 0001897  69.2247 290.8946 15.06412167 42659","MEAN_ANOMALY":"290.8946","ELEMENT_SET_NO":"999","MEAN_MOTION_DOT":"0.00001085","RCS_SIZE":"LARGE","PERIOD":"95.591","FILE":"3104555","TLE_LINE1":"1 47161U 20088AR  21240.48072267  .00001085  00000-0  91681-4 0  9995","SITE":"AFETR","PERIAPSIS":"545.863","INCLINATION":"53.0543","OBJECT_TYPE":"PAYLOAD","REF_FRAME":"TEME","OBJECT_ID":"2020-088AR","MEAN_ELEMENT_THEORY":"SGP4","COUNTRY_CODE":"US","SEMIMAJOR_AXIS":"6925.311","RA_OF_ASC_NODE":"157.6510","GP_ID":"183637582","CLASSIFICATION_TYPE":"U","CENTER_NAME":"EARTH","REV_AT_EPOCH":"4265","OBJECT_NAME":"STARLINK-1876"}];
